LEOPARD                 
1 67687U 98067YD  26059.45044451  .00036895  00000+0  62541-3 0  9994
2 67687  51.6314 117.7139 0007680 123.4164 236.7560 15.51125040  3272
ISS OBJECT YE           
1 67688U 98067YE  26059.44767188  .00042995  00000+0  71844-3 0  9997
2 67688  51.6321 117.6961 0007619 120.4932 239.6810 15.51456738  3276
CZ-2F R/B               
1 67690U 26024B   26059.45385924  .00018705  00000+0  34568-3 0  9993
2 67690  49.9880  60.9071 0175515 236.6403 121.7651 15.33916959  3275
CZ-2F DEB               
1 67691U 26024C   26059.46225534  .00925802  10707-4  76354-3 0  9999
2 67691  49.9043  54.6362 0182217 249.3034 108.8331 15.87269726  3349
CZ-2F DEB               
1 67692U 26024D   26059.49271420  .00196273  00000+0  36485-2 0  9990
2 67692  50.3171  63.7699 0245182 243.9110 113.6430 15.21322637  3228
STARLINK-36748          
1 67693U 26025A   26059.45748171  .00109712  00000+0  72568-3 0  9995
2 67693  97.2841 170.5340 0001057  86.7421 273.3965 15.75232744  4486
STARLINK-36753          
1 67694U 26025B   26059.44971589  .00107285  00000+0  70966-3 0  9999
2 67694  97.2841 170.5436 0001379  69.0978 291.0434 15.75238496  4490
STARLINK-36750          
1 67695U 26025C   26059.43769361  .00143162  00000+0  73340-3 0  9995
2 67695  97.2846 170.5613 0001513 121.2544 238.8873 15.80891782  4487
STARLINK-36401          
1 67696U 26025D   26059.50001156 -.01979441  00000+0 -13532-1 0  9990
2 67696  97.2846 170.6283 0001325  78.8627 280.9822 15.77998657  4377
STARLINK-36704          
1 67697U 26025E   26059.44760033  .00138289  00000+0  91110-3 0  9994
2 67697  97.2842 170.5460 0001382  62.7730 297.3675 15.75240138  4482
STARLINK-36697          
1 67698U 26025F   26059.43123541  .00083615  00000+0  43218-3 0  9999
2 67698  97.2852 170.5690 0001611 114.9402 245.2034 15.80862033  4481
