CCSDS_OMM_VERS = 2.0
CREATION_DATE  = 
ORIGINATOR     = 

OBJECT_NAME    = LEOPARD
OBJECT_ID      = 1998-067YD
CENTER_NAME    = EARTH
REF_FRAME      = TEME
TIME_SYSTEM    = UTC
MEAN_ELEMENT_THEORY = SGP/SGP4

EPOCH          = 2026-02-28T10:48:38.405664
MEAN_MOTION    = 15.51125040
ECCENTRICITY   = .000768
INCLINATION    = 51.6314
RA_OF_ASC_NODE = 117.7139
ARG_OF_PERICENTER = 123.4164
MEAN_ANOMALY   = 236.7560

EPHEMERIS_TYPE = 0
CLASSIFICATION_TYPE = U
NORAD_CAT_ID   = 67687
ELEMENT_SET_NO = 999
REV_AT_EPOCH   = 327
BSTAR          = .62541E-3
MEAN_MOTION_DOT = .36895E-3
MEAN_MOTION_DDOT = 0

CCSDS_OMM_VERS = 2.0
CREATION_DATE  = 
ORIGINATOR     = 

OBJECT_NAME    = ISS OBJECT YE
OBJECT_ID      = 1998-067YE
CENTER_NAME    = EARTH
REF_FRAME      = TEME
TIME_SYSTEM    = UTC
MEAN_ELEMENT_THEORY = SGP/SGP4

EPOCH          = 2026-02-28T10:44:38.850432
MEAN_MOTION    = 15.51456738
ECCENTRICITY   = .0007619
INCLINATION    = 51.6321
RA_OF_ASC_NODE = 117.6961
ARG_OF_PERICENTER = 120.4932
MEAN_ANOMALY   = 239.6810

EPHEMERIS_TYPE = 0
CLASSIFICATION_TYPE = U
NORAD_CAT_ID   = 67688
ELEMENT_SET_NO = 999
REV_AT_EPOCH   = 327
BSTAR          = .71844E-3
MEAN_MOTION_DOT = .42995E-3
MEAN_MOTION_DDOT = 0

CCSDS_OMM_VERS = 2.0
CREATION_DATE  = 
ORIGINATOR     = 

OBJECT_NAME    = CZ-2F R/B
OBJECT_ID      = 2026-024B
CENTER_NAME    = EARTH
REF_FRAME      = TEME
TIME_SYSTEM    = UTC
MEAN_ELEMENT_THEORY = SGP/SGP4

EPOCH          = 2026-02-28T10:53:33.438336
MEAN_MOTION    = 15.33916959
ECCENTRICITY   = .0175515
INCLINATION    = 49.9880
RA_OF_ASC_NODE = 60.9071
ARG_OF_PERICENTER = 236.6403
MEAN_ANOMALY   = 121.7651

EPHEMERIS_TYPE = 0
CLASSIFICATION_TYPE = U
NORAD_CAT_ID   = 67690
ELEMENT_SET_NO = 999
REV_AT_EPOCH   = 327
BSTAR          = .34568E-3
MEAN_MOTION_DOT = .18705E-3
MEAN_MOTION_DDOT = 0

CCSDS_OMM_VERS = 2.0
CREATION_DATE  = 
ORIGINATOR     = 

OBJECT_NAME    = CZ-2F DEB
OBJECT_ID      = 2026-024C
CENTER_NAME    = EARTH
REF_FRAME      = TEME
TIME_SYSTEM    = UTC
MEAN_ELEMENT_THEORY = SGP/SGP4

EPOCH          = 2026-02-28T11:05:38.861376
MEAN_MOTION    = 15.87269726
ECCENTRICITY   = .0182217
INCLINATION    = 49.9043
RA_OF_ASC_NODE = 54.6362
ARG_OF_PERICENTER = 249.3034
MEAN_ANOMALY   = 108.8331

EPHEMERIS_TYPE = 0
CLASSIFICATION_TYPE = U
NORAD_CAT_ID   = 67691
ELEMENT_SET_NO = 999
REV_AT_EPOCH   = 334
BSTAR          = .76354E-3
MEAN_MOTION_DOT = .925802E-2
MEAN_MOTION_DDOT = .10707E-4

CCSDS_OMM_VERS = 2.0
CREATION_DATE  = 
ORIGINATOR     = 

OBJECT_NAME    = CZ-2F DEB
OBJECT_ID      = 2026-024D
CENTER_NAME    = EARTH
REF_FRAME      = TEME
TIME_SYSTEM    = UTC
MEAN_ELEMENT_THEORY = SGP/SGP4

EPOCH          = 2026-02-28T11:49:30.506880
MEAN_MOTION    = 15.21322637
ECCENTRICITY   = .0245182
INCLINATION    = 50.3171
RA_OF_ASC_NODE = 63.7699
ARG_OF_PERICENTER = 243.9110
MEAN_ANOMALY   = 113.6430

EPHEMERIS_TYPE = 0
CLASSIFICATION_TYPE = U
NORAD_CAT_ID   = 67692
ELEMENT_SET_NO = 999
REV_AT_EPOCH   = 322
BSTAR          = .36485E-2
MEAN_MOTION_DOT = .196273E-2
MEAN_MOTION_DDOT = 0

CCSDS_OMM_VERS = 2.0
CREATION_DATE  = 
ORIGINATOR     = 

OBJECT_NAME    = STARLINK-36748
OBJECT_ID      = 2026-025A
CENTER_NAME    = EARTH
REF_FRAME      = TEME
TIME_SYSTEM    = UTC
MEAN_ELEMENT_THEORY = SGP/SGP4

EPOCH          = 2026-02-28T10:58:46.419744
MEAN_MOTION    = 15.75232744
ECCENTRICITY   = .0001057
INCLINATION    = 97.2841
RA_OF_ASC_NODE = 170.5340
ARG_OF_PERICENTER = 86.7421
MEAN_ANOMALY   = 273.3965

EPHEMERIS_TYPE = 0
CLASSIFICATION_TYPE = U
NORAD_CAT_ID   = 67693
ELEMENT_SET_NO = 999
REV_AT_EPOCH   = 448
BSTAR          = .72568E-3
MEAN_MOTION_DOT = .109712E-2
MEAN_MOTION_DDOT = 0

CCSDS_OMM_VERS = 2.0
CREATION_DATE  = 
ORIGINATOR     = 

OBJECT_NAME    = STARLINK-36753
OBJECT_ID      = 2026-025B
CENTER_NAME    = EARTH
REF_FRAME      = TEME
TIME_SYSTEM    = UTC
MEAN_ELEMENT_THEORY = SGP/SGP4

EPOCH          = 2026-02-28T10:47:35.452896
MEAN_MOTION    = 15.75238496
ECCENTRICITY   = .0001379
INCLINATION    = 97.2841
RA_OF_ASC_NODE = 170.5436
ARG_OF_PERICENTER = 69.0978
MEAN_ANOMALY   = 291.0434

EPHEMERIS_TYPE = 0
CLASSIFICATION_TYPE = U
NORAD_CAT_ID   = 67694
ELEMENT_SET_NO = 999
REV_AT_EPOCH   = 449
BSTAR          = .70966E-3
MEAN_MOTION_DOT = .107285E-2
MEAN_MOTION_DDOT = 0

CCSDS_OMM_VERS = 2.0
CREATION_DATE  = 
ORIGINATOR     = 

OBJECT_NAME    = STARLINK-36750
OBJECT_ID      = 2026-025C
CENTER_NAME    = EARTH
REF_FRAME      = TEME
TIME_SYSTEM    = UTC
MEAN_ELEMENT_THEORY = SGP/SGP4

EPOCH          = 2026-02-28T10:30:16.727904
MEAN_MOTION    = 15.80891782
ECCENTRICITY   = .0001513
INCLINATION    = 97.2846
RA_OF_ASC_NODE = 170.5613
ARG_OF_PERICENTER = 121.2544
MEAN_ANOMALY   = 238.8873

EPHEMERIS_TYPE = 0
CLASSIFICATION_TYPE = U
NORAD_CAT_ID   = 67695
ELEMENT_SET_NO = 999
REV_AT_EPOCH   = 448
BSTAR          = .7334E-3
MEAN_MOTION_DOT = .143162E-2
MEAN_MOTION_DDOT = 0

CCSDS_OMM_VERS = 2.0
CREATION_DATE  = 
ORIGINATOR     = 

OBJECT_NAME    = STARLINK-36401
OBJECT_ID      = 2026-025D
CENTER_NAME    = EARTH
REF_FRAME      = TEME
TIME_SYSTEM    = UTC
MEAN_ELEMENT_THEORY = SGP/SGP4

EPOCH          = 2026-02-28T12:00:00.998784
MEAN_MOTION    = 15.77998657
ECCENTRICITY   = .0001325
INCLINATION    = 97.2846
RA_OF_ASC_NODE = 170.6283
ARG_OF_PERICENTER = 78.8627
MEAN_ANOMALY   = 280.9822

EPHEMERIS_TYPE = 0
CLASSIFICATION_TYPE = U
NORAD_CAT_ID   = 67696
ELEMENT_SET_NO = 999
REV_AT_EPOCH   = 437
BSTAR          = -.13532E-1
MEAN_MOTION_DOT = -.1979441E-1
MEAN_MOTION_DDOT = 0

CCSDS_OMM_VERS = 2.0
CREATION_DATE  = 
ORIGINATOR     = 

OBJECT_NAME    = STARLINK-36704
OBJECT_ID      = 2026-025E
CENTER_NAME    = EARTH
REF_FRAME      = TEME
TIME_SYSTEM    = UTC
MEAN_ELEMENT_THEORY = SGP/SGP4

EPOCH          = 2026-02-28T10:44:32.668512
MEAN_MOTION    = 15.75240138
ECCENTRICITY   = .0001382
INCLINATION    = 97.2842
RA_OF_ASC_NODE = 170.5460
ARG_OF_PERICENTER = 62.7730
MEAN_ANOMALY   = 297.3675

EPHEMERIS_TYPE = 0
CLASSIFICATION_TYPE = U
NORAD_CAT_ID   = 67697
ELEMENT_SET_NO = 999
REV_AT_EPOCH   = 448
BSTAR          = .9111E-3
MEAN_MOTION_DOT = .138289E-2
MEAN_MOTION_DDOT = 0

CCSDS_OMM_VERS = 2.0
CREATION_DATE  = 
ORIGINATOR     = 

OBJECT_NAME    = STARLINK-36697
OBJECT_ID      = 2026-025F
CENTER_NAME    = EARTH
REF_FRAME      = TEME
TIME_SYSTEM    = UTC
MEAN_ELEMENT_THEORY = SGP/SGP4

EPOCH          = 2026-02-28T10:20:58.739424
MEAN_MOTION    = 15.80862033
ECCENTRICITY   = .0001611
INCLINATION    = 97.2852
RA_OF_ASC_NODE = 170.5690
ARG_OF_PERICENTER = 114.9402
MEAN_ANOMALY   = 245.2034

EPHEMERIS_TYPE = 0
CLASSIFICATION_TYPE = U
NORAD_CAT_ID   = 67698
ELEMENT_SET_NO = 999
REV_AT_EPOCH   = 448
BSTAR          = .43218E-3
MEAN_MOTION_DOT = .83615E-3
MEAN_MOTION_DDOT = 0

